{"type":"FeatureCollection","features":[{"type":"Feature","id":1,"geometry":{"type":"LineString","coordinates":[[-0.27220599999992601,50.931790000000035],[-0.27220999999997275,50.931750000000079],[-0.27221799999995255,50.931462000000067],[-0.272233999999969,50.931324000000075],[-0.27224899999993113,50.931204000000037],[-0.27235799999994015,50.931212000000073],[-0.27224899999993113,50.931204000000037],[-0.272233999999969,50.931324000000075],[-0.27187799999995832,50.931302000000073],[-0.27114099999994323,50.931324000000075],[-0.27079599999996162,50.931359000000043],[-0.27064699999993991,50.931288000000052],[-0.27063799999996263,50.931187000000079],[-0.26970399999993333,50.931146000000069],[-0.26971999999994978,50.93104500000004],[-0.26910699999996268,50.93099600000005],[-0.26909899999992604,50.931047000000035],[-0.26897699999994984,50.932029000000057],[-0.26847899999995661,50.931946000000039],[-0.26757699999996021,50.931864000000076],[-0.26741699999996627,50.931877000000043],[-0.26656999999994468,50.932075000000054],[-0.2661579999999617,50.932138000000066],[-0.26581999999996242,50.932140000000061],[-0.26445899999993117,50.932068000000072],[-0.26405799999997726,50.932158000000072],[-0.26286699999997154,50.932296000000065],[-0.26281399999993482,50.932296000000065],[-0.26220699999993258,50.932272000000069],[-0.26189999999996871,50.932211000000052],[-0.26015399999994315,50.931992000000037],[-0.25908599999996795,50.931963000000053],[-0.25848599999994804,50.931949000000031],[-0.25842899999997826,50.931943000000047],[-0.25778699999995069,50.931884000000082],[-0.25594199999994771,50.931752000000074],[-0.2551279999999565,50.931764000000044],[-0.25491799999997511,50.931751000000077],[-0.25376299999993535,50.931524000000081],[-0.25349399999993238,50.931505000000072],[-0.25370599999996557,50.930001000000061],[-0.25374799999997322,50.929956000000061],[-0.25375599999995302,50.929822000000058],[-0.25367799999997942,50.92940800000008],[-0.25372299999997949,50.928653000000054],[-0.25374099999993405,50.928472000000056],[-0.25355699999994386,50.928445000000067],[-0.25351499999993621,50.927879000000075],[-0.25342999999998028,50.927598000000046],[-0.25324599999993325,50.92732600000005],[-0.25301299999995308,50.927104000000043],[-0.25214299999993273,50.927036000000044],[-0.24926899999996976,50.927031000000056],[-0.24858799999992698,50.926938000000064],[-0.24733099999997421,50.927153000000033],[-0.24753999999995813,50.926612000000034],[-0.24847399999993058,50.92612500000007],[-0.2485489999999686,50.926086000000055],[-0.24881999999996651,50.925336000000073],[-0.24941599999993969,50.924186000000077],[-0.24852199999997993,50.923943000000065],[-0.24801299999995763,50.923762000000067],[-0.2476149999999393,50.923657000000048],[-0.24718399999994745,50.923365000000047],[-0.24672899999995934,50.922942000000035],[-0.24628899999993337,50.922532000000047],[-0.24613499999992428,50.922371000000055],[-0.24530599999997094,50.921853000000056],[-0.24489999999997281,50.921562000000051],[-0.24620099999992817,50.921309000000065],[-0.24689699999993309,50.921233000000029],[-0.24890599999997676,50.921317000000045],[-0.24938899999995101,50.921340000000043],[-0.24951599999997143,50.921231000000034],[-0.24980199999993147,50.921272000000044],[-0.2500079999999798,50.921301000000028],[-0.25077999999996337,50.920817000000056],[-0.25131199999992759,50.92107800000008],[-0.25148699999994051,50.921162000000038],[-0.25155999999992673,50.921197000000063],[-0.25156099999992421,50.921309000000065],[-0.25263299999994615,50.922153000000037],[-0.25320799999997234,50.92245900000006],[-0.25410099999993463,50.922862000000066],[-0.25429199999996399,50.923193000000026],[-0.25479299999994964,50.923901000000058],[-0.25513799999993125,50.924238000000059],[-0.25522899999992887,50.924360000000036],[-0.25530599999996184,50.924605000000042],[-0.25535499999995181,50.924630000000036],[-0.25519099999996797,50.925046000000066],[-0.25494499999996378,50.925297000000057],[-0.25566199999997252,50.925527000000045],[-0.25743499999992991,50.925969000000066],[-0.25958999999994603,50.926378000000057],[-0.2597089999999298,50.926400000000058],[-0.25985699999995404,50.926427000000047],[-0.2597529999999324,50.926857000000041],[-0.2597669999999539,50.926996000000031],[-0.25978199999997287,50.927094000000068],[-0.25984899999997424,50.927225000000078],[-0.25978899999995519,50.927348000000052],[-0.25981999999993377,50.927369000000056],[-0.25989799999996421,50.927450000000078],[-0.25998699999996688,50.927469000000031],[-0.26078599999993912,50.927509000000043],[-0.26119699999992463,50.927509000000043],[-0.26163499999995565,50.927571000000057],[-0.26230899999995927,50.927874000000031],[-0.26295799999996916,50.928106000000071],[-0.26338899999996102,50.928186000000039],[-0.26387699999997949,50.928244000000063],[-0.26535899999993262,50.92827200000005],[-0.2661919999999327,50.928310000000067],[-0.26702499999993279,50.928348000000028],[-0.26739999999995234,50.928301000000033],[-0.26777999999995927,50.928320000000042],[-0.2682959999999639,50.928443000000073],[-0.26955199999997603,50.928647000000069],[-0.26997099999994134,50.928731000000028],[-0.27009199999997691,50.928746000000046],[-0.27041999999994459,50.928758000000073],[-0.27098699999993414,50.928717000000063],[-0.27132899999998017,50.928666000000078],[-0.27143799999993234,50.928679000000045],[-0.27192199999996092,50.928641000000027],[-0.27209199999992961,50.928671000000065],[-0.27210099999996373,50.928752000000031],[-0.27211299999993344,50.928851000000066],[-0.27229699999998047,50.929347000000064],[-0.27232899999995652,50.929432000000077],[-0.27236199999993005,50.929533000000049],[-0.27238399999993135,50.929598000000055],[-0.27197199999994837,50.929639000000066],[-0.27181599999994432,50.929691000000048],[-0.27167599999995673,50.929721000000029],[-0.27162099999992506,50.929770000000076],[-0.27158799999995153,50.930177000000072],[-0.27161999999992759,50.930207000000053],[-0.27166199999993523,50.930386000000055],[-0.27165999999994028,50.930481000000043],[-0.27165099999996301,50.930801000000031],[-0.27169299999997065,50.930937000000029],[-0.27180699999996705,50.930974000000049],[-0.27226899999993748,50.93099200000006],[-0.2722599999999602,50.931087000000048],[-0.27224899999993113,50.931204000000037],[-0.272233999999969,50.931324000000075],[-0.27221799999995255,50.931462000000067],[-0.27220999999997275,50.931750000000079],[-0.27220599999992601,50.931790000000035]]},"properties":{"OBJECTID":1,"Name":"7.64807523124135E-02"}}]}