{
"type": "FeatureCollection",
"name": "ecotrailhabitat",
"crs": { "type": "name", "properties": { "name": "urn:ogc:def:crs:OGC:1.3:CRS84" } },
"features": [
{ "type": "Feature", "properties": { "name": "Henfield Trail", "mainhabs": "Trail Buffer Zone" }, "geometry": { "type": "Polygon", "coordinates": [ [ [ -0.274345850760202, 50.931698245748805 ], [ -0.274343759770644, 50.931773645080682 ], [ -0.274339842873823, 50.931835028761569 ], [ -0.27433584469038, 50.931875028851728 ], [ -0.27431240238716, 50.932006543250822 ], [ -0.274268673866132, 50.932135972338571 ], [ -0.274205080098876, 50.932262069618275 ], [ -0.274122233387551, 50.932383620671168 ], [ -0.274020931473494, 50.932499454853279 ], [ -0.273902149859058, 50.932608456570982 ], [ -0.273767032416474, 50.932709576026483 ], [ -0.273616880374026, 50.932801839329969 ], [ -0.273453139785531, 50.932884357880816 ], [ -0.273277387603765, 50.932956336927397 ], [ -0.273091316491946, 50.933017083222943 ], [ -0.272896718519647, 50.933066011703815 ], [ -0.272695467900208, 50.933102651125743 ], [ -0.272489502936113, 50.933126648603412 ], [ -0.272280807346348, 50.93313777301006 ], [ -0.272071391155802, 50.933135917204147 ], [ -0.27186327133101, 50.933121099061303 ], [ -0.271658452348976, 50.93309346130215 ], [ -0.271458906886446, 50.93305327011732 ], [ -0.271266556815887, 50.9330009126029 ], [ -0.271083254691399, 50.932936893031247 ], [ -0.270910765903082, 50.932861827993001 ], [ -0.270750988543191, 50.932776566857953 ], [ -0.270660606974844, 50.932857739357154 ], [ -0.270525328358958, 50.932957117293689 ], [ -0.270375419993721, 50.933047726149525 ], [ -0.270212298238704, 50.933128709790047 ], [ -0.270037504327411, 50.933199303022391 ], [ -0.269852689803938, 50.933258838827065 ], [ -0.269659600916255, 50.9333067546617 ], [ -0.269460062113637, 50.933342597777774 ], [ -0.26925595880434, 50.933366029499354 ], [ -0.269049219536591, 50.933376828423995 ], [ -0.268841797771448, 50.93337489251531 ], [ -0.268635653419995, 50.933360240067174 ], [ -0.268432734319514, 50.933333009530834 ], [ -0.268053509963672, 50.933269805470061 ], [ -0.267734167681776, 50.933240774733846 ], [ -0.267310418588703, 50.933339832198307 ], [ -0.267071929684385, 50.933385769287391 ], [ -0.266659918690699, 50.933448770938455 ], [ -0.266420652688164, 50.933476346958614 ], [ -0.266177975144308, 50.933486541107662 ], [ -0.265839965364173, 50.933488541069224 ], [ -0.265641965863513, 50.933483899975961 ], [ -0.264735884135246, 50.933435967719738 ], [ -0.26460934180259, 50.933460816839933 ], [ -0.264442906606361, 50.933484482977079 ], [ -0.263251873661103, 50.93362248655248 ], [ -0.263060224705414, 50.933639059727035 ], [ -0.262866988180164, 50.933644599281401 ], [ -0.26281398664679, 50.933644599266337 ], [ -0.262680723975653, 50.933641967443762 ], [ -0.262073706551612, 50.933617966584599 ], [ -0.261817420985849, 50.933597940447832 ], [ -0.261566839655261, 50.933558500329752 ], [ -0.261370609010215, 50.933519509830305 ], [ -0.259898933841891, 50.93333491799411 ], [ -0.259000799749992, 50.933310529600348 ], [ -0.258407230716712, 50.933296679473145 ], [ -0.258135323754273, 50.933279268352905 ], [ -0.25810005639821, 50.933275555990789 ], [ -0.257513316136529, 50.933221634218732 ], [ -0.255846381510131, 50.933102374169898 ], [ -0.255177748603332, 50.933112230556233 ], [ -0.254919922590686, 50.933106172506726 ], [ -0.254709916620798, 50.933093172076198 ], [ -0.254494866739363, 50.933072825299263 ], [ -0.254284209836072, 50.93303875569142 ], [ -0.25332359382485, 50.932849959497005 ], [ -0.253256925181461, 50.932845250480419 ], [ -0.253053110609072, 50.932824505273459 ], [ -0.252853421799016, 50.93279141273706 ], [ -0.252659727434406, 50.932746282553587 ], [ -0.25247384008792, 50.932689537052923 ], [ -0.252297499256413, 50.932621707259131 ], [ -0.252132355080213, 50.932543427920102 ], [ -0.251979952899554, 50.932455431566197 ], [ -0.251841718792791, 50.932358541653954 ], [ -0.25171894623175, 50.93225366485877 ], [ -0.251612783979135, 50.932141782589078 ], [ -0.251524225341178, 50.932023941801042 ], [ -0.25145409887604, 50.931901245200457 ], [ -0.251403060644801, 50.931774840922685 ], [ -0.251371588077385, 50.931645911788358 ], [ -0.25135997551065, 50.931515664234347 ], [ -0.251368331440172, 50.931385317024322 ], [ -0.251580399280606, 50.929881321526743 ], [ -0.251600364690251, 50.92978721242261 ], [ -0.251558964806606, 50.929567420595383 ], [ -0.251545746113904, 50.929462482745301 ], [ -0.251545519481241, 50.929357213010739 ], [ -0.251570736355852, 50.928934457776535 ], [ -0.251549413309388, 50.928902199061319 ], [ -0.251487389199579, 50.928773676164788 ], [ -0.25144591050264, 50.928641890596225 ], [ -0.251425388809781, 50.928508150616651 ], [ -0.251416133208232, 50.928383344404537 ], [ -0.249263071660708, 50.928379591382416 ], [ -0.24903941739756, 50.928371769478652 ], [ -0.248818292877069, 50.928349173908302 ], [ -0.248644530466538, 50.928325444574362 ], [ -0.247888438339802, 50.928454766351912 ], [ -0.247682562360139, 50.928483166498161 ], [ -0.247473257794292, 50.928498595381292 ], [ -0.247262565806624, 50.928500902538595 ], [ -0.247052541094772, 50.928490065472133 ], [ -0.246845231846783, 50.928466189868104 ], [ -0.246642659761809, 50.928429508565927 ], [ -0.246446800329506, 50.9283803792868 ], [ -0.246259563560641, 50.928319281144425 ], [ -0.246082775357055, 50.928246809971284 ], [ -0.245918159702842, 50.928163672506848 ], [ -0.245767321850552, 50.928070679503939 ], [ -0.245631732666483, 50.927968737820599 ], [ -0.245512714287754, 50.927858841575016 ], [ -0.245411427231064, 50.927742062449305 ], [ -0.245328859078737, 50.927619539237433 ], [ -0.24526581485233, 50.927492466738485 ], [ -0.245222909167492, 50.927362084104487 ], [ -0.245200560246396, 50.927229662755785 ], [ -0.24519898584591, 50.927096493982297 ], [ -0.245218201140956, 50.926963876351337 ], [ -0.245258018583446, 50.92683310304497 ], [ -0.245467041017828, 50.926292106952133 ], [ -0.24552206451088, 50.926173550397586 ], [ -0.245594024420944, 50.926058673915342 ], [ -0.245682316669795, 50.925948441659123 ], [ -0.245786200117766, 50.925843778797372 ], [ -0.245904802787056, 50.925745563749309 ], [ -0.246037129182447, 50.925654620813567 ], [ -0.246182068647907, 50.925571713251038 ], [ -0.246630579567573, 50.92533785927472 ], [ -0.246739760850917, 50.925035731105794 ], [ -0.246792226356051, 50.924916176843382 ], [ -0.246799006500425, 50.924903095786263 ], [ -0.246793057592716, 50.924901526328583 ], [ -0.246589026465994, 50.924839470026434 ], [ -0.246396549137102, 50.924764098100667 ], [ -0.246217793105931, 50.924676259345091 ], [ -0.246054771318706, 50.92457694294184 ], [ -0.245623772872056, 50.924284937237687 ], [ -0.245516688389367, 50.924206556804798 ], [ -0.245419435776659, 50.924123214032591 ], [ -0.244964444726909, 50.923700207292512 ], [ -0.244963171265558, 50.923699021984262 ], [ -0.244523179979039, 50.923289015462267 ], [ -0.24446305775787, 50.923229713229766 ], [ -0.244446292202634, 50.923212184942031 ], [ -0.243805926965576, 50.922812043470451 ], [ -0.243705688043868, 50.922744968435602 ], [ -0.243299690541253, 50.922453962934064 ], [ -0.24316711110592, 50.92234879717055 ], [ -0.243051761004649, 50.922235808927653 ], [ -0.242954786984137, 50.922116121599529 ], [ -0.242877153062664, 50.92199092517739 ], [ -0.242819630950045, 50.921861464416729 ], [ -0.242782792380586, 50.921729026460334 ], [ -0.242767003435084, 50.921594928040065 ], [ -0.242772420908058, 50.921460502385273 ], [ -0.242798990756062, 50.921327085967249 ], [ -0.24284644864222, 50.921196005212131 ], [ -0.242914322571291, 50.921068563313995 ], [ -0.243001937588773, 50.920946027279442 ], [ -0.243108422497088, 50.920829615332295 ], [ -0.243232718521825, 50.920720484803553 ], [ -0.243373589841731, 50.920619720627201 ], [ -0.243529635877572, 50.920528324555725 ], [ -0.243699305217644, 50.920447205202862 ], [ -0.24388091104143, 50.920377169012383 ], [ -0.244072647888088, 50.920318912242415 ], [ -0.244272609603146, 50.920273014045172 ], [ -0.245573576701727, 50.920020020660665 ], [ -0.245837792451226, 50.919980076048965 ], [ -0.246533773103389, 50.919904078006937 ], [ -0.246785021802711, 50.919886250759355 ], [ -0.247037842662661, 50.9198873345305 ], [ -0.24880169275093, 50.919961085726229 ], [ -0.248967685426788, 50.919927684958076 ], [ -0.249169085010224, 50.919900337143233 ], [ -0.249218074151451, 50.919896759621089 ], [ -0.249277502137261, 50.919859501838509 ], [ -0.249429768772798, 50.919772801967433 ], [ -0.249594492262627, 50.919695736105247 ], [ -0.249770152849164, 50.919629015245285 ], [ -0.249955129893372, 50.919573254937632 ], [ -0.250147716824539, 50.919528969611342 ], [ -0.250346136881962, 50.919496567829725 ], [ -0.250548559503411, 50.919476348521748 ], [ -0.250753117209356, 50.91946849822493 ], [ -0.250957922827367, 50.919473089364807 ], [ -0.251161086897966, 50.919490079586808 ], [ -0.25136073510159, 50.919519312146996 ], [ -0.251555025546058, 50.919560517357489 ], [ -0.251742165755278, 50.919613315073953 ], [ -0.251920429202647, 50.919677218201869 ], [ -0.252088171236752, 50.919751637189016 ], [ -0.252611279492114, 50.920008271253323 ], [ -0.252776853053149, 50.920087745448818 ], [ -0.252849386808248, 50.920122521425604 ], [ -0.253015463317059, 50.92021090907545 ], [ -0.253166469939874, 50.920309507119512 ], [ -0.253300843056902, 50.920417294677023 ], [ -0.253417191242336, 50.920533155711631 ], [ -0.253514309673991, 50.920655890584996 ], [ -0.253556035065567, 50.920725541355132 ], [ -0.254166434331277, 50.921206101050586 ], [ -0.254517076731672, 50.921392700424008 ], [ -0.255340796715914, 50.921764430026258 ], [ -0.255508233441513, 50.921848296125333 ], [ -0.255661562663325, 50.921942324994355 ], [ -0.255799247172962, 50.922045573999412 ], [ -0.255919906572157, 50.922157008068446 ], [ -0.256022331113386, 50.922275510066051 ], [ -0.256105493831055, 50.922399891991326 ], [ -0.256270600177967, 50.922685997557195 ], [ -0.256673663290213, 50.923255562556008 ], [ -0.256929402148146, 50.923505361200966 ], [ -0.257067989054467, 50.923662901725073 ], [ -0.257158993055859, 50.923784900270803 ], [ -0.25725553464666, 50.923937913909683 ], [ -0.257321839986698, 50.92409722540863 ], [ -0.257329995631099, 50.924123171589997 ], [ -0.257377897231649, 50.924200978412223 ], [ -0.257432998521855, 50.924323736738394 ], [ -0.257469496510857, 50.924449237028419 ], [ -0.257480752586787, 50.924530684912561 ], [ -0.258134542636577, 50.924693667159808 ], [ -0.260196365404765, 50.925084980619474 ], [ -0.260304410108524, 50.925104955193362 ], [ -0.26044875682462, 50.925131288615141 ], [ -0.260642732621068, 50.925173151848391 ], [ -0.260829458463787, 50.925226584778365 ], [ -0.261007211425284, 50.92529109438636 ], [ -0.261174351350596, 50.925366085447877 ], [ -0.26132933598905, 50.925450866023489 ], [ -0.26147073522365, 50.925544653842017 ], [ -0.261597244266881, 50.925646583517064 ], [ -0.261707695701147, 50.925755714530645 ], [ -0.261801070252781, 50.925871039910135 ], [ -0.261876506200112, 50.925991495518396 ], [ -0.261933307328689, 50.926115969871873 ], [ -0.261968857423872, 50.926236237308018 ], [ -0.262101361898991, 50.926254993397933 ], [ -0.262305876946672, 50.926290776364468 ], [ -0.262503757463475, 50.926339220360667 ], [ -0.262693046544853, 50.926399846315441 ], [ -0.262871872228331, 50.926472054685505 ], [ -0.263455785581806, 50.926734552956262 ], [ -0.263794869316254, 50.926855765462754 ], [ -0.263888086023596, 50.926873067740296 ], [ -0.264107471099223, 50.9268991421715 ], [ -0.26542273082551, 50.926923990573783 ], [ -0.265512629324297, 50.926926888881077 ], [ -0.266345605472426, 50.926964887558746 ], [ -0.266891874552577, 50.926989807920286 ], [ -0.266984878602639, 50.926978151274689 ], [ -0.267178034427686, 50.926959703102796 ], [ -0.267373050243029, 50.926952495654056 ], [ -0.267568291808836, 50.926956589328611 ], [ -0.267948280947529, 50.926975588678282 ], [ -0.268147019836336, 50.926991486336568 ], [ -0.268342524324991, 50.927019091945041 ], [ -0.268533071550733, 50.927058162234509 ], [ -0.268940025069634, 50.927155168363157 ], [ -0.270083128052185, 50.927340830325072 ], [ -0.270197228705133, 50.927361516123696 ], [ -0.270399511985391, 50.927402069395704 ], [ -0.270619391473952, 50.927386169666526 ], [ -0.270838919423559, 50.927353432894456 ], [ -0.27105836430397, 50.927328276119397 ], [ -0.271280765115279, 50.927317731562255 ], [ -0.271431189939513, 50.927320554062028 ], [ -0.271658901832342, 50.927302675536453 ], [ -0.271869441127058, 50.927292795930363 ], [ -0.272080494735579, 50.927296112540674 ], [ -0.272289996977004, 50.927312592907874 ], [ -0.27249589734994, 50.927342075732355 ], [ -0.272665893024131, 50.927372074860415 ], [ -0.272857251161811, 50.927412089780177 ], [ -0.27304178214611, 50.927463336436176 ], [ -0.273217839686383, 50.927525357640327 ], [ -0.273383853068793, 50.927597600078819 ], [ -0.273538341167463, 50.927679419247326 ], [ -0.273679925657247, 50.92777008519969 ], [ -0.27380734331033, 50.927868789058792 ], [ -0.273919457266964, 50.927974650231668 ], [ -0.274015267179777, 50.928086724264517 ], [ -0.274093918141102, 50.928204011267553 ], [ -0.274154708313612, 50.928325464834671 ], [ -0.274197095196058, 50.928450001378302 ], [ -0.274220700468052, 50.928576509796294 ], [ -0.274228279022212, 50.928644688755156 ], [ -0.274373828924667, 50.929036992547722 ], [ -0.274405019652613, 50.929119833083114 ], [ -0.274418882285899, 50.929159264438972 ], [ -0.274450354962279, 50.929255576659628 ], [ -0.274470773466054, 50.929315896049658 ], [ -0.274503858834828, 50.929443076696792 ], [ -0.274517581853136, 50.929571672509866 ], [ -0.27451181701748, 50.929700508922437 ], [ -0.274486616822276, 50.929828409160834 ], [ -0.274442211286241, 50.929954204992754 ], [ -0.274379005857106, 50.930076747398218 ], [ -0.274297577713603, 50.930194917065307 ], [ -0.274198670498303, 50.930307634614891 ], [ -0.274147234202517, 50.930354952302743 ], [ -0.274208291193403, 50.930429143243352 ], [ -0.274286178207947, 50.930551835095976 ], [ -0.274344682955098, 50.930678756492163 ], [ -0.274372041697002, 50.930770943909749 ], [ -0.274410651448973, 50.930843072414149 ], [ -0.274457991653671, 50.930971992956067 ], [ -0.274485107972727, 50.931103225018063 ], [ -0.274491739092059, 50.931235504776026 ], [ -0.274477820976276, 50.931367558305332 ], [ -0.274443487492075, 50.931498113849422 ], [ -0.274389069125641, 50.931625914067666 ], [ -0.274345850760202, 50.931698245748805 ] ], [ [ -0.268108583282323, 50.929804992262547 ], [ -0.267764784562267, 50.929749150635423 ], [ -0.267542874577757, 50.929704825608702 ], [ -0.26741174607337, 50.929673568355526 ], [ -0.26725182865486, 50.929688960333223 ], [ -0.267061740818083, 50.929696401310387 ], [ -0.266871360232984, 50.929693102018298 ], [ -0.266038348447107, 50.929655101246581 ], [ -0.265250240108429, 50.929619149056812 ], [ -0.26381319755342, 50.929591997775091 ], [ -0.263647191222452, 50.929584758336354 ], [ -0.263482582253432, 50.929569366421127 ], [ -0.262994568952207, 50.929511364653472 ], [ -0.262787634965261, 50.929479945076189 ], [ -0.262356624144368, 50.929399942765528 ], [ -0.262126545621917, 50.929348024830652 ], [ -0.261907365211307, 50.929279827946722 ], [ -0.261258354386785, 50.929047822040992 ], [ -0.261072052436911, 50.928972928542237 ], [ -0.260815513778032, 50.928857599804921 ], [ -0.260785981470363, 50.928857599748284 ], [ -0.260617487042626, 50.928853388805621 ], [ -0.259818464204426, 50.928813387435767 ], [ -0.25964429281367, 50.92880009543638 ], [ -0.259472437834169, 50.928777806558323 ], [ -0.2593040608913, 50.928746671461013 ], [ -0.259215058756278, 50.928727670923095 ], [ -0.259017100318406, 50.928678332136606 ], [ -0.258827902131712, 50.928616778476865 ], [ -0.258649345688063, 50.928543622081591 ], [ -0.258483206625879, 50.928459590471462 ], [ -0.258331137070333, 50.928365519313687 ], [ -0.258194649203113, 50.928262344109818 ], [ -0.258075100225248, 50.928151090890779 ], [ -0.25806552198601, 50.928141143867528 ], [ -0.257980843155026, 50.928064173180651 ], [ -0.257881090260226, 50.927952025116042 ], [ -0.257798700992608, 50.927834380105743 ], [ -0.257734425032243, 50.927712308822926 ], [ -0.257688847197557, 50.927586922214999 ], [ -0.257662382127842, 50.927459361392536 ], [ -0.257660196389049, 50.927419844464943 ], [ -0.2568212307354, 50.927260610005675 ], [ -0.256652021522292, 50.927223534327702 ], [ -0.255263175852681, 50.926877303252979 ], [ -0.255392072620448, 50.927067834014188 ], [ -0.255470790407573, 50.92720401479621 ], [ -0.255525921963542, 50.927344749219522 ], [ -0.255610934208954, 50.92762574782531 ], [ -0.255646556300111, 50.927815800851654 ], [ -0.255650798188447, 50.92787293064665 ], [ -0.255672406031286, 50.927898570499458 ], [ -0.255753617053444, 50.928023785277787 ], [ -0.255814563370815, 50.928153513238463 ], [ -0.255854631153871, 50.928286448173694 ], [ -0.255873416783596, 50.928421251573916 ], [ -0.255870730922561, 50.928556566104525 ], [ -0.255854419452992, 50.928720662358742 ], [ -0.255816741488518, 50.929353301516493 ], [ -0.255875016039415, 50.929662529515248 ], [ -0.255888247212932, 50.929767508800524 ], [ -0.255888475964648, 50.929872820457554 ], [ -0.255880482077947, 50.930006820663046 ], [ -0.255862082838981, 50.93013982283945 ], [ -0.255822963788414, 50.930271023553381 ], [ -0.255804917433708, 50.930309909424523 ], [ -0.255791483926301, 50.930405244389128 ], [ -0.255892205548081, 50.930403759212268 ], [ -0.256182086291298, 50.93041195466872 ], [ -0.258027034126044, 50.930543950387595 ], [ -0.258094114448995, 50.930549430764323 ], [ -0.258690587492457, 50.930604246750825 ], [ -0.259164722252752, 50.930615309506017 ], [ -0.259177616491115, 50.930615635007385 ], [ -0.260245585723271, 50.930644633872483 ], [ -0.260408280259888, 50.93065299945598 ], [ -0.260569487153235, 50.930669198832405 ], [ -0.262315439869608, 50.930888192198246 ], [ -0.262540107563543, 50.9309244872344 ], [ -0.262599404385112, 50.930936269366761 ], [ -0.262725810495599, 50.930941267245927 ], [ -0.263504896968026, 50.930850994833662 ], [ -0.263744750604147, 50.930797162239791 ], [ -0.263961940868655, 50.930756478644838 ], [ -0.264184731375879, 50.930730572739577 ], [ -0.264410611941491, 50.930719736407816 ], [ -0.264637037573754, 50.930724091744437 ], [ -0.265895207958126, 50.930790652027483 ], [ -0.265946708577061, 50.930782776899953 ], [ -0.266676576553631, 50.930612158320088 ], [ -0.266907449694027, 50.930567393711691 ], [ -0.267098656565665, 50.930544846287155 ], [ -0.267140077675897, 50.930472799348841 ], [ -0.267232419833727, 50.93035148431705 ], [ -0.26734344025133, 50.930236591530566 ], [ -0.267472032590092, 50.930129265780856 ], [ -0.267616915451096, 50.930030576454151 ], [ -0.267776645145441, 50.929941506877839 ], [ -0.267949630080231, 50.929862944524395 ], [ -0.268108583282323, 50.929804992262547 ] ], [ [ -0.252929987790516, 50.925738631497019 ], [ -0.252920817921764, 50.925723717472763 ], [ -0.252864758841848, 50.925597293383113 ], [ -0.252828417028005, 50.925468023152369 ], [ -0.252812136775857, 50.925337132050913 ], [ -0.25281607222502, 50.925205860701951 ], [ -0.252840185904509, 50.925075453322449 ], [ -0.252884249094313, 50.924947145930126 ], [ -0.252947843999503, 50.924822154628899 ], [ -0.253030367715996, 50.924701664083202 ], [ -0.25304920621563, 50.924680172576551 ], [ -0.253001525534125, 50.924633595419664 ], [ -0.252917813518932, 50.924544491121765 ], [ -0.252845174124067, 50.92445158727174 ], [ -0.252344198196161, 50.923743579209486 ], [ -0.252328569582685, 50.923719210904892 ], [ -0.251968110565805, 50.92355653645108 ], [ -0.251833727582402, 50.923490623344875 ], [ -0.251258724214989, 50.923184616590454 ], [ -0.251106726570378, 50.923095393193059 ], [ -0.250969155728029, 50.922997262349639 ], [ -0.250482518823726, 50.922614120606291 ], [ -0.250392159926629, 50.922627557352619 ], [ -0.250180613103758, 50.922645176951612 ], [ -0.249967339757865, 50.922649353283362 ], [ -0.24990935263678, 50.922646817534606 ], [ -0.249871616763471, 50.922653643485319 ], [ -0.249659342047342, 50.922677727875218 ], [ -0.249444304958924, 50.922688144549646 ], [ -0.249340091924635, 50.922686521738783 ], [ -0.249469257025439, 50.922732452183659 ], [ -0.250258934676186, 50.922947094370819 ], [ -0.250448069402658, 50.923005653332993 ], [ -0.250627149429301, 50.923075712009151 ], [ -0.250794430073635, 50.923156587875098 ], [ -0.250948281580547, 50.923247493019304 ], [ -0.251087204999133, 50.923347541817471 ], [ -0.251209846786472, 50.923455759558962 ], [ -0.251315011996064, 50.923571091940985 ], [ -0.251401675922391, 50.923692415338785 ], [ -0.251468994088069, 50.923818547750926 ], [ -0.251516310476148, 50.92394826031407 ], [ -0.251543163927165, 50.924080289274229 ], [ -0.251549292638415, 50.924213348298672 ], [ -0.251534636721365, 50.924346141007867 ], [ -0.25149933879203, 50.924477373606145 ], [ -0.251443742588279, 50.924605767487172 ], [ -0.250884359119209, 50.925685206541523 ], [ -0.252148819696405, 50.925687397290403 ], [ -0.25240489961417, 50.925697589484585 ], [ -0.252929987790516, 50.925738631497019 ] ] ] } },
{ "type": "Feature", "properties": { "name": "Butcher's Wood Trail", "mainhabs": "Trail Buffer Zone" }, "geometry": { "type": "Polygon", "coordinates": [ [ [ -0.190615415159443, 50.930486341441238 ], [ -0.19061077693234, 50.930491383590166 ], [ -0.190485225665106, 50.930600913440685 ], [ -0.19034294493657, 50.930701945205186 ], [ -0.190185365762535, 50.930793462665932 ], [ -0.190014073065118, 50.930874545298558 ], [ -0.189793666047151, 50.93096835467184 ], [ -0.189705154086412, 50.931044964908175 ], [ -0.189213151486679, 50.931799692710733 ], [ -0.189082315864915, 50.931966614471015 ], [ -0.18890932058925, 50.932153617230426 ], [ -0.188786793158175, 50.932271458806866 ], [ -0.188645463832511, 50.932380571546673 ], [ -0.187843466521768, 50.932937582342142 ], [ -0.18766008327776, 50.93305051973222 ], [ -0.187456613373376, 50.933148764293556 ], [ -0.187148609168457, 50.933279767372262 ], [ -0.187010031644627, 50.933333967857479 ], [ -0.186918753624757, 50.933363838999824 ], [ -0.186597312002964, 50.933577100819406 ], [ -0.186423812574531, 50.933680049434187 ], [ -0.186233250993156, 50.933770150023577 ], [ -0.185171236153439, 50.934216160541837 ], [ -0.184988754275368, 50.934284779628911 ], [ -0.184796383787218, 50.934341599692402 ], [ -0.184596029290027, 50.934386058166929 ], [ -0.184389674451958, 50.934417714876091 ], [ -0.184179362364173, 50.934436256391649 ], [ -0.183967175307641, 50.934441499137357 ], [ -0.183724382705133, 50.934439858784316 ], [ -0.183532077969463, 50.934461635993891 ], [ -0.182966787303788, 50.934572733310816 ], [ -0.182761447703035, 50.93460611842761 ], [ -0.182551878834983, 50.934626463619033 ], [ -0.182340149329392, 50.934633568061713 ], [ -0.182128349148392, 50.934627361630248 ], [ -0.181918568951333, 50.934607905589537 ], [ -0.18171287945279, 50.934575391989867 ], [ -0.181545249654472, 50.93453738358501 ], [ -0.181444249321102, 50.934635077912191 ], [ -0.181313068404938, 50.934738245958201 ], [ -0.181166515476033, 50.934832792177218 ], [ -0.181006001918427, 50.934917805982792 ], [ -0.180833073598666, 50.934992468592 ], [ -0.180649395976997, 50.935056060912821 ], [ -0.180456738065526, 50.935107970471378 ], [ -0.180256955387979, 50.935147697312026 ], [ -0.180051972105272, 50.935174858813753 ], [ -0.179843762479235, 50.935189193376146 ], [ -0.179634331853214, 50.935190562939468 ], [ -0.179425697332956, 50.935178954314807 ], [ -0.17921986835407, 50.935154479310839 ], [ -0.179184017751696, 50.935147862481926 ], [ -0.178992919456315, 50.935157127749328 ], [ -0.178776090808521, 50.935153688636703 ], [ -0.178560934452664, 50.935136360637102 ], [ -0.178349672789399, 50.93510532273762 ], [ -0.178144487979302, 50.93506089553771 ], [ -0.177982484383008, 50.935019894407269 ], [ -0.177973536102623, 50.935017614853713 ], [ -0.177622528366362, 50.934927612378267 ], [ -0.17743284287244, 50.934871987826661 ], [ -0.177252683472513, 50.934804899779294 ], [ -0.177083779917179, 50.934726992381577 ], [ -0.176927753860858, 50.934639013656913 ], [ -0.176908236406256, 50.934625620164219 ], [ -0.176864195846171, 50.934612292732339 ], [ -0.176675223551161, 50.934547519857453 ], [ -0.176497523263472, 50.934471061982613 ], [ -0.176332898212904, 50.93438369499826 ], [ -0.1761830189153, 50.934286305494787 ], [ -0.176049406220255, 50.934179881763747 ], [ -0.175933415879078, 50.934065503767066 ], [ -0.175836224789533, 50.933944332176132 ], [ -0.175758819056906, 50.933817596591979 ], [ -0.175701983992392, 50.933686583066525 ], [ -0.175666296150109, 50.933552621051064 ], [ -0.175652117483299, 50.933417069904884 ], [ -0.175653337642892, 50.933394906418748 ], [ -0.175551990208876, 50.93332714981306 ], [ -0.175471125339891, 50.933261179585543 ], [ -0.175350678305159, 50.933218899775291 ], [ -0.17516769383584, 50.933146791447456 ], [ -0.174997160195583, 50.933063381673371 ], [ -0.174840818710119, 50.932969522189893 ], [ -0.174810523596002, 50.932947245778095 ], [ -0.174406904505951, 50.932798579629683 ], [ -0.174219901516049, 50.932729577887194 ], [ -0.174038954483283, 50.932654795766403 ], [ -0.173870910656724, 50.932568827653213 ], [ -0.173717494889631, 50.932472555991062 ], [ -0.173580281852956, 50.932366968980752 ], [ -0.173460679872859, 50.932253150435052 ], [ -0.173359916477174, 50.93213226865209 ], [ -0.173279025799131, 50.932005564421388 ], [ -0.173218837967461, 50.931874338286448 ], [ -0.173179970591634, 50.931739937194195 ], [ -0.173177952671147, 50.931723910222054 ], [ -0.172235064303004, 50.931410703806954 ], [ -0.172059884498833, 50.931345603290481 ], [ -0.171895298817639, 50.931270267411712 ], [ -0.171742799908935, 50.931185379428143 ], [ -0.171603770779475, 50.931091709225605 ], [ -0.171479472250341, 50.930990106334619 ], [ -0.17137103152322, 50.930881492224138 ], [ -0.171279431959519, 50.930766851943268 ], [ -0.171205504164984, 50.930647225186341 ], [ -0.171149918460569, 50.930523696862743 ], [ -0.171113178807692, 50.930397387256804 ], [ -0.171095618242837, 50.930269441867182 ], [ -0.171097395862733, 50.930141021018031 ], [ -0.171118495387212, 50.930013289335832 ], [ -0.171158725312618, 50.929887405187685 ], [ -0.171217720654145, 50.929764510176774 ], [ -0.172281790788538, 50.927876529093943 ], [ -0.172361852407769, 50.92775391182672 ], [ -0.17246058691209, 50.927636858422716 ], [ -0.172577038974189, 50.927526501297933 ], [ -0.172757551814145, 50.927372428332887 ], [ -0.17318788537294, 50.926924113933723 ], [ -0.173211049947416, 50.926894900552199 ], [ -0.173234012307032, 50.926528835220999 ], [ -0.173228232578395, 50.925560099762492 ], [ -0.173239314601338, 50.925417654633385 ], [ -0.173341896984912, 50.924784422797089 ], [ -0.173285102676548, 50.924659491118369 ], [ -0.173246787045679, 50.924525451403703 ], [ -0.173230060001169, 50.92438965256737 ], [ -0.173219405755973, 50.924141883050268 ], [ -0.172866717932761, 50.922077814452479 ], [ -0.17286380206881, 50.922049277230677 ], [ -0.172743329016986, 50.921683289459985 ], [ -0.172619031650042, 50.921307319509246 ], [ -0.172428032395272, 50.921335663463211 ], [ -0.172216210509217, 50.921353225765571 ], [ -0.172002671786739, 50.921357310226192 ], [ -0.171789557383255, 50.921347875892081 ], [ -0.17157900419782, 50.921325017363245 ], [ -0.171373123440963, 50.921288963843772 ], [ -0.171173979460433, 50.921240076843127 ], [ -0.170983569037466, 50.921178846550042 ], [ -0.170803801361391, 50.921105886916507 ], [ -0.170636478883546, 50.921021929500014 ], [ -0.170600478728149, 50.921001929067053 ], [ -0.170464231653799, 50.920919194945775 ], [ -0.170340098800184, 50.92082916642665 ], [ -0.170229053558995, 50.92073254952502 ], [ -0.170131966670939, 50.920630101918384 ], [ -0.169574189632436, 50.91997761308474 ], [ -0.169075349269115, 50.919484285598394 ], [ -0.169020861828364, 50.919427351321794 ], [ -0.167629154883479, 50.917888607102533 ], [ -0.167458023205072, 50.917699594731957 ], [ -0.167453870983567, 50.917698070035051 ], [ -0.167360869596355, 50.917662069139269 ], [ -0.167191345822905, 50.917589141341168 ], [ -0.167033681829825, 50.917506262144762 ], [ -0.166889334226844, 50.917414197282234 ], [ -0.166759636568559, 50.917313797348349 ], [ -0.166645787034514, 50.917205989940179 ], [ -0.166548837361092, 50.917091771085822 ], [ -0.166469683127431, 50.916972196040625 ], [ -0.166409055485004, 50.916848369536886 ], [ -0.166367514407185, 50.91672143557625 ], [ -0.166345443520939, 50.916592566859954 ], [ -0.16634304656826, 50.91646295395401 ], [ -0.166360345529808, 50.916333794289798 ], [ -0.166371881305861, 50.916293860403371 ], [ -0.16629582379477, 50.915793983702507 ], [ -0.166224501569172, 50.915725793662538 ], [ -0.166123172985492, 50.915618403713921 ], [ -0.166038015011343, 50.915505542419616 ], [ -0.165969759682259, 50.915388180118491 ], [ -0.165918993697259, 50.915267325839842 ], [ -0.165868999964118, 50.915121325017985 ], [ -0.165839063584777, 50.915012527349688 ], [ -0.165823308976583, 50.914902546067161 ], [ -0.165821841682085, 50.914792118654354 ], [ -0.165828847885543, 50.914656118845642 ], [ -0.165847327408719, 50.914517579951841 ], [ -0.165885818168391, 50.914389164807886 ], [ -0.165810600025863, 50.914304374134119 ], [ -0.16572685133848, 50.914183657131176 ], [ -0.165586859933279, 50.913951654846564 ], [ -0.165519159733594, 50.913819338964998 ], [ -0.165473374272417, 50.913683319058997 ], [ -0.165400998121058, 50.913396303424435 ], [ -0.16531603986684, 50.913270880578402 ], [ -0.16524570653589, 50.913151838735764 ], [ -0.165193409448533, 50.913029140252661 ], [ -0.165159612816847, 50.912903874593688 ], [ -0.165144616575361, 50.912777154009092 ], [ -0.165148553723109, 50.912650103658507 ], [ -0.165166257332449, 50.912552224364262 ], [ -0.165141364064308, 50.912438547024003 ], [ -0.165132873795492, 50.912309061129051 ], [ -0.165144082810606, 50.912179657914358 ], [ -0.165174887432165, 50.912051532411404 ], [ -0.165223796342337, 50.911928893598862 ], [ -0.16521757792867, 50.911874275304825 ], [ -0.165221389245136, 50.911751070069862 ], [ -0.165242973600863, 50.911628599137551 ], [ -0.165282150636386, 50.911507885091872 ], [ -0.165338593107022, 50.911389935839715 ], [ -0.165400597240712, 50.911278936943482 ], [ -0.165403853887142, 50.911273148946229 ], [ -0.165723307194896, 50.910709450393014 ], [ -0.165747840252653, 50.910664768664063 ], [ -0.165824500200128, 50.91054423097021 ], [ -0.165919149757838, 50.910428916123472 ], [ -0.166030910431446, 50.910319894267992 ], [ -0.166158744953531, 50.910218177140763 ], [ -0.166301466912419, 50.910124708683881 ], [ -0.166457751764032, 50.910040356286139 ], [ -0.166626149124537, 50.90996590273501 ], [ -0.16680509622967, 50.909902038953902 ], [ -0.166992932435887, 50.909849357591668 ], [ -0.167187914628848, 50.909808347524184 ], [ -0.167388233396342, 50.909779389318643 ], [ -0.167592029815723, 50.909762751702743 ], [ -0.167797412700226, 50.909758589071544 ], [ -0.168002476144334, 50.909766940055071 ], [ -0.169220441734826, 50.909853937216859 ], [ -0.169417526448024, 50.909873955953856 ], [ -0.169610788588414, 50.90990553438143 ], [ -0.169798535828269, 50.909948395981466 ], [ -0.169979124119306, 50.910002165432701 ], [ -0.170150972086147, 50.910066371896249 ], [ -0.170312574871637, 50.910140453137736 ], [ -0.170462517312885, 50.910223760449455 ], [ -0.170825054435229, 50.910445026769736 ], [ -0.171010332937187, 50.910483208023336 ], [ -0.172539222130037, 50.910591849227664 ], [ -0.172738280024229, 50.910612053881309 ], [ -0.172933431956073, 50.910644049170479 ], [ -0.173122934779472, 50.910687549308278 ], [ -0.173305095794455, 50.910742165742995 ], [ -0.173478287863776, 50.910807410628045 ], [ -0.173640963944596, 50.910882701178352 ], [ -0.17379167090557, 50.910967364874821 ], [ -0.173929062505986, 50.911060645470272 ], [ -0.174051911421102, 50.911161709743126 ], [ -0.174215914432841, 50.911310707331594 ], [ -0.174327012524556, 50.911423031498437 ], [ -0.174420143045816, 50.91154170499523 ], [ -0.174484600010307, 50.911649223670551 ], [ -0.17475927791595, 50.911625168264003 ], [ -0.174918649946291, 50.911615048821858 ], [ -0.175078773717445, 50.911612517990712 ], [ -0.175708755516885, 50.911617517659117 ], [ -0.175899517151876, 50.911624441658844 ], [ -0.176088533557664, 50.911642129584543 ], [ -0.176274288248163, 50.911670439526794 ], [ -0.176980270464164, 50.911799435786023 ], [ -0.17714065987123, 50.911836783478741 ], [ -0.177539900282886, 50.911763277722734 ], [ -0.178033294490247, 50.911623430470286 ], [ -0.178221225653921, 50.911576782450453 ], [ -0.178871205836045, 50.911437501455815 ], [ -0.179572457465019, 50.911247974330593 ], [ -0.179756876893505, 50.911204378008954 ], [ -0.179946868632717, 50.911171717292248 ], [ -0.180911842560253, 50.91103572083356 ], [ -0.180983735052938, 50.911026406161824 ], [ -0.183029678597385, 50.910784412407935 ], [ -0.183233997250359, 50.910766656275591 ], [ -0.183440073121917, 50.91076145745506 ], [ -0.183645979959295, 50.910768864542987 ], [ -0.183849793088814, 50.91078880830478 ], [ -0.184049607401768, 50.910821102321471 ], [ -0.184243555157693, 50.910865444731762 ], [ -0.184429823438809, 50.910921421052841 ], [ -0.184606671092643, 50.910988508053784 ], [ -0.184772445004672, 50.911066078645092 ], [ -0.184925595548979, 50.911153407739192 ], [ -0.185064691072598, 50.911249679026625 ], [ -0.185188431278218, 50.91135399260515 ], [ -0.185295659380156, 50.911465373390079 ], [ -0.185385372919957, 50.911582780227761 ], [ -0.185456733140409, 50.911705115626539 ], [ -0.185509072830287, 50.911831236014869 ], [ -0.185541902566291, 50.911959962430231 ], [ -0.185554915293689, 50.912090091539341 ], [ -0.185549494704354, 50.912192080743573 ], [ -0.186025537099843, 50.913771602283049 ], [ -0.186043310565215, 50.913840123863189 ], [ -0.18620334338312, 50.91457512132429 ], [ -0.186221660002155, 50.914706637756595 ], [ -0.186219546287985, 50.914838656174204 ], [ -0.186197022326131, 50.914969911282363 ], [ -0.186154303822681, 50.915099145091553 ], [ -0.186091800043355, 50.915225118974817 ], [ -0.186010109897043, 50.915346625539954 ], [ -0.185910016201091, 50.915462500202558 ], [ -0.185792478183133, 50.915571632349305 ], [ -0.185751907438101, 50.91560559956978 ], [ -0.185229330707761, 50.916046568069255 ], [ -0.185073607220318, 50.916163520386327 ], [ -0.18492132118014, 50.916265544602268 ], [ -0.185035145822681, 50.916720220311703 ], [ -0.185055767337611, 50.916833356671013 ], [ -0.185061214875521, 50.916947189463968 ], [ -0.185040265343079, 50.918051190364146 ], [ -0.185027384733767, 50.918183857712187 ], [ -0.184930409429648, 50.918735859715859 ], [ -0.184889351210557, 50.918888765799188 ], [ -0.184755057430314, 50.919258524121048 ], [ -0.184711331601045, 50.919554513422284 ], [ -0.184731465093446, 50.919739411885992 ], [ -0.184734818415545, 50.919885561150068 ], [ -0.184713128945718, 50.920031081392594 ], [ -0.184690732210236, 50.920125936078023 ], [ -0.184752578118857, 50.920466002205089 ], [ -0.184764873979584, 50.920566779271752 ], [ -0.18476519401653, 50.920667855384728 ], [ -0.184717232968513, 50.921521856655957 ], [ -0.184702186077021, 50.921640850377258 ], [ -0.184670550040174, 50.921758536871693 ], [ -0.184622572616852, 50.921873994011726 ], [ -0.184422588505067, 50.922280997641643 ], [ -0.18435046625367, 50.922405731134432 ], [ -0.184259283270035, 50.922525376130956 ], [ -0.184149923686912, 50.92263877233848 ], [ -0.184023447932638, 50.922744820055811 ], [ -0.183881082450743, 50.9228424908395 ], [ -0.18372420780837, 50.922930837479242 ], [ -0.183554345308781, 50.923009003185427 ], [ -0.183552254707303, 50.923009778805636 ], [ -0.183552384130152, 50.923069088351895 ], [ -0.183550203179755, 50.923099004503868 ], [ -0.187305538944381, 50.923399054765945 ], [ -0.187494626154605, 50.923419655811621 ], [ -0.187680020893289, 50.923450909777159 ], [ -0.187860224004313, 50.923492563936534 ], [ -0.190175173832653, 50.924103547232441 ], [ -0.19037063072399, 50.924162667196569 ], [ -0.190501433223142, 50.924207525535245 ], [ -0.192650713571556, 50.924634446035576 ], [ -0.192845805499501, 50.924679907592626 ], [ -0.193032970464397, 50.92473715449902 ], [ -0.193210431212032, 50.924805643169158 ], [ -0.193376502613272, 50.92488472326859 ], [ -0.193529607663544, 50.924973643887938 ], [ -0.193668292456722, 50.925071560671725 ], [ -0.193791239991275, 50.925177543834579 ], [ -0.193837240973651, 50.925221543148091 ], [ -0.19394484251311, 50.925336452653426 ], [ -0.194033937621161, 50.925457524007314 ], [ -0.194103652755974, 50.925583570354974 ], [ -0.194153304338767, 50.925713356062218 ], [ -0.194182405460678, 50.925845608827316 ], [ -0.194190670662334, 50.925979032152838 ], [ -0.194178018739059, 50.926112318055011 ], [ -0.194166941234352, 50.926176030348188 ], [ -0.194162795994204, 50.9262017380779 ], [ -0.194140273836957, 50.926303100274062 ], [ -0.193748333683531, 50.927684107889249 ], [ -0.193745059136321, 50.927695370090042 ], [ -0.193638953585791, 50.928051777890431 ], [ -0.193346995786101, 50.929030783530408 ], [ -0.193295629750545, 50.92916490319012 ], [ -0.193222845020155, 50.929295003423064 ], [ -0.193129403509594, 50.929419722021279 ], [ -0.193016283441787, 50.929537753114531 ], [ -0.192884669110904, 50.929647860845101 ], [ -0.192735938486348, 50.929748892309675 ], [ -0.19257164878735, 50.929839789632858 ], [ -0.192393520179127, 50.92991960104596 ], [ -0.192203417761294, 50.929987490854657 ], [ -0.192003332037156, 50.930042748191262 ], [ -0.191445184214426, 50.930175839238842 ], [ -0.191024936599283, 50.930311995003613 ], [ -0.190625474669233, 50.930482517640847 ], [ -0.190615415159443, 50.930486341441238 ] ], [ [ -0.176281503087362, 50.9297357754769 ], [ -0.176545577849668, 50.929815149310237 ], [ -0.176733813932549, 50.929879222819729 ], [ -0.176910960293181, 50.929954877988528 ], [ -0.177075238753708, 50.930041355423725 ], [ -0.177225000272015, 50.930137787098452 ], [ -0.177358741494037, 50.930243205062908 ], [ -0.177475119845111, 50.930356551158773 ], [ -0.177572967008842, 50.930476687638823 ], [ -0.177651300658119, 50.93060240858604 ], [ -0.177709334320403, 50.930732452017011 ], [ -0.177746485278061, 50.930865512548515 ], [ -0.177754813236165, 50.93093610810638 ], [ -0.177838998646142, 50.930979988343744 ], [ -0.177934168196301, 50.931040422295283 ], [ -0.17830922937471, 50.931172072246213 ], [ -0.17838765530116, 50.93120280061126 ], [ -0.178453788152299, 50.931227663211935 ], [ -0.178467820583901, 50.93123421038451 ], [ -0.178483265511023, 50.931240261891467 ], [ -0.178561146018782, 50.931277753548976 ], [ -0.178624221422113, 50.93130718276597 ], [ -0.179082749611809, 50.931544214898771 ], [ -0.179150404162208, 50.931528204971009 ], [ -0.179527394721402, 50.931452206953502 ], [ -0.179727211365269, 50.93141857047781 ], [ -0.179931241334972, 50.931397312660025 ], [ -0.180137569104312, 50.931388633079578 ], [ -0.18034425757938, 50.931392613225881 ], [ -0.180549366280166, 50.931409215733289 ], [ -0.180750969553902, 50.931438284731847 ], [ -0.180947174649428, 50.931479547310197 ], [ -0.182461519844454, 50.931850410423856 ], [ -0.182648552001531, 50.931821559482898 ], [ -0.183169537555856, 50.931762561002579 ], [ -0.183334939002749, 50.931748862055919 ], [ -0.183671640453535, 50.931607460589902 ], [ -0.183877013077005, 50.931471210408056 ], [ -0.183897449588507, 50.931452387612602 ], [ -0.184029471223055, 50.931352868629688 ], [ -0.184176027538507, 50.931261835507634 ], [ -0.184335759528001, 50.931180132342234 ], [ -0.184507186038459, 50.931108516714438 ], [ -0.184688717503898, 50.93104765266699 ], [ -0.184873084280595, 50.930992855211372 ], [ -0.185329889172377, 50.930675604971775 ], [ -0.185856899725857, 50.92986727451369 ], [ -0.185968347444343, 50.929721766115868 ], [ -0.186106544545599, 50.929585730458314 ], [ -0.186567551082684, 50.929186737282862 ], [ -0.186683208649201, 50.929095256720004 ], [ -0.186810986682043, 50.929010461286047 ], [ -0.186893712526831, 50.928964332921403 ], [ -0.186904280828704, 50.928950690032394 ], [ -0.187015771351052, 50.928836925616942 ], [ -0.187144552827879, 50.928730703960269 ], [ -0.187289357225283, 50.928633070871896 ], [ -0.18744875878207, 50.92854498759641 ], [ -0.187621188048229, 50.9284673213511 ], [ -0.188088181101723, 50.928278325850954 ], [ -0.18825984233124, 50.928215757643642 ], [ -0.188418879080233, 50.928169632944496 ], [ -0.188742551089477, 50.928031465537643 ], [ -0.188963504349726, 50.927948918039 ], [ -0.189365551704847, 50.927818661063213 ], [ -0.189444985031209, 50.927552377474058 ], [ -0.189549264373923, 50.927202209044168 ], [ -0.189645092557221, 50.926864671629374 ], [ -0.189025168358438, 50.926741526412009 ], [ -0.188832374040355, 50.926696676098551 ], [ -0.188647298179837, 50.926640315870799 ], [ -0.188430646834932, 50.926566015094785 ], [ -0.186483019638184, 50.92605197508253 ], [ -0.182715306442664, 50.925750923710531 ], [ -0.18248441073816, 50.92572424605747 ], [ -0.182259548657935, 50.925681701004734 ], [ -0.182014273570967, 50.925625832678271 ], [ -0.180858937624095, 50.925453528592165 ], [ -0.180657412736482, 50.92541677799106 ], [ -0.180462570816875, 50.92536769970625 ], [ -0.180276294668784, 50.925306768000354 ], [ -0.180100384301796, 50.925234571677599 ], [ -0.179936539535006, 50.925151808392613 ], [ -0.179786343569701, 50.925059277907387 ], [ -0.179651247690161, 50.924957874361375 ], [ -0.179532557240411, 50.924848577629703 ], [ -0.179431419012485, 50.924732443852903 ], [ -0.17934881016796, 50.924610595229943 ], [ -0.179285528799749, 50.924484209173109 ], [ -0.179242186225194, 50.924354506929724 ], [ -0.179219201084733, 50.924222741780419 ], [ -0.179216795302967, 50.924090186928595 ], [ -0.17926483201498, 50.923285188176848 ], [ -0.179265583293965, 50.923273862138181 ], [ -0.179275512863975, 50.92313783011879 ], [ -0.179222713462588, 50.923000535192834 ], [ -0.179184676538288, 50.922876613400838 ], [ -0.179165138418667, 50.922750986588177 ], [ -0.179164270141246, 50.922624755461598 ], [ -0.179182079162345, 50.922499026013902 ], [ -0.179218409297065, 50.9223748998334 ], [ -0.179272942092895, 50.922253464452787 ], [ -0.179351947760462, 50.922104465870504 ], [ -0.179424827321246, 50.921985897921317 ], [ -0.17951505637354, 50.921872197442013 ], [ -0.179621832080684, 50.921764375958602 ], [ -0.179744204419562, 50.921663392688572 ], [ -0.180003353157589, 50.92146923942633 ], [ -0.180318892831385, 50.921186203280136 ], [ -0.18044425375296, 50.921084458975606 ], [ -0.180473048973232, 50.921065206897254 ], [ -0.180495093080284, 50.92067332140261 ], [ -0.180419407871432, 50.920256947638634 ], [ -0.180406232981784, 50.920139231012442 ], [ -0.18040938973581, 50.920021237054463 ], [ -0.180428853837145, 50.919903869303475 ], [ -0.180458567947643, 50.919778073073985 ], [ -0.180442516570746, 50.91963053870635 ], [ -0.180437649460996, 50.919521491519014 ], [ -0.180446742109953, 50.919412552449216 ], [ -0.180519764346091, 50.918918553996996 ], [ -0.180564633189923, 50.918742184221003 ], [ -0.180703150402255, 50.918360891925431 ], [ -0.180774981570843, 50.91795222616291 ], [ -0.180792586263463, 50.917028943564745 ], [ -0.18060884933203, 50.916294727961763 ], [ -0.180588024809205, 50.916179707723437 ], [ -0.180582882622633, 50.916063982259502 ], [ -0.180593460551613, 50.915948404422004 ], [ -0.180632471505199, 50.915704405238834 ], [ -0.180667302612238, 50.915562540069971 ], [ -0.180725792389436, 50.915423819397859 ], [ -0.180807277799006, 50.915289815265332 ], [ -0.180910835228953, 50.915162046252384 ], [ -0.181035290967427, 50.915041960268773 ], [ -0.181496297367407, 50.914644967078253 ], [ -0.181664429615251, 50.914517445365874 ], [ -0.181856090220415, 50.914389048354927 ], [ -0.181824137491971, 50.914242233328885 ], [ -0.181658898599286, 50.913693813310516 ], [ -0.181067932556233, 50.913777099667392 ], [ -0.180472544994436, 50.913938015143877 ], [ -0.180318804648778, 50.913975199520529 ], [ -0.179686504818055, 50.914110692861072 ], [ -0.179150713144647, 50.914262557680757 ], [ -0.178874491372172, 50.914326783162721 ], [ -0.177804463907419, 50.914523788309054 ], [ -0.177608619763676, 50.914553582469331 ], [ -0.17740920321103, 50.914571565999225 ], [ -0.177207992438935, 50.914577578541724 ], [ -0.176856982290872, 50.914577578437012 ], [ -0.176631032129831, 50.914569991945825 ], [ -0.176407624234144, 50.914547318644331 ], [ -0.176189272178126, 50.914509813633792 ], [ -0.175978432637407, 50.914457898887058 ], [ -0.175648768116585, 50.914363708703725 ], [ -0.175366775117815, 50.914312183057405 ], [ -0.175185709474058, 50.914310745875476 ], [ -0.174636451441346, 50.914358846374704 ], [ -0.173988609648623, 50.914470828853084 ], [ -0.173765553698141, 50.914501382720609 ], [ -0.173538610665162, 50.914516696714294 ], [ -0.173310378425455, 50.914516595533094 ], [ -0.173083469615712, 50.914501080337629 ], [ -0.172344449197597, 50.914425077973043 ], [ -0.172133424186813, 50.914396380492128 ], [ -0.171928067196421, 50.914354348485872 ], [ -0.171730480879291, 50.914299412325946 ], [ -0.171542688303937, 50.914232134508964 ], [ -0.171366612236622, 50.914153203895658 ], [ -0.170812607794065, 50.913877197626775 ], [ -0.170654321804118, 50.913790024147211 ], [ -0.170510356242766, 50.913693437352407 ], [ -0.170382105272215, 50.913588372652463 ], [ -0.17029554239484, 50.913500852642066 ], [ -0.170316222679199, 50.913569282108433 ], [ -0.170333481350117, 50.913646476292186 ], [ -0.170339593472269, 50.913671684080498 ], [ -0.170363026971622, 50.91383088704967 ], [ -0.17035649049883, 50.913990724367991 ], [ -0.170279516209911, 50.914560726026906 ], [ -0.170249300459287, 50.914699246716779 ], [ -0.170241168756824, 50.914720183501309 ], [ -0.170262655677117, 50.914750059506645 ], [ -0.170333460686727, 50.914884365481321 ], [ -0.170453471998068, 50.915159363499406 ], [ -0.170494843882082, 50.915273175485652 ], [ -0.170520485378316, 50.915388823365028 ], [ -0.170580523371006, 50.91578318091431 ], [ -0.170716638110028, 50.915892884607494 ], [ -0.170775639156477, 50.915945883742715 ], [ -0.170882503554274, 50.916052082581878 ], [ -0.171332517189999, 50.916549075635686 ], [ -0.172698927394364, 50.918059717280649 ], [ -0.173036118510166, 50.918393157134787 ], [ -0.173182767163113, 50.918388413951568 ], [ -0.173398104241942, 50.91839522249505 ], [ -0.173611254714355, 50.918415734417536 ], [ -0.173820041816319, 50.918449740246594 ], [ -0.174022333332048, 50.918496892705065 ], [ -0.174216063364016, 50.918556710256489 ], [ -0.174399253426518, 50.918628582021555 ], [ -0.174570032647649, 50.918711774015158 ], [ -0.17472665687354, 50.918805436640433 ], [ -0.174867526479859, 50.91890861336357 ], [ -0.174991202708766, 50.919020250480621 ], [ -0.174994458446859, 50.919023931306377 ], [ -0.175025573166145, 50.919039108984173 ], [ -0.175229445273566, 50.919108569185362 ], [ -0.175415175098346, 50.919163132281085 ], [ -0.175615716460473, 50.919239988366499 ], [ -0.175801701668917, 50.91933029310357 ], [ -0.175970883452157, 50.919432955380216 ], [ -0.176063883788906, 50.919495954149717 ], [ -0.176189433504342, 50.919589143678451 ], [ -0.176301099202634, 50.919689144818136 ], [ -0.176397960930195, 50.919795133796782 ], [ -0.176479220666452, 50.91990623751078 ], [ -0.176544208900292, 50.920021540716498 ], [ -0.176592390148509, 50.920140093569032 ], [ -0.176920432934958, 50.921132088184166 ], [ -0.177080833190021, 50.921619234969491 ], [ -0.177111443641201, 50.921738967904226 ], [ -0.177124911052723, 50.92185995492418 ], [ -0.177124388035674, 50.921876712577152 ], [ -0.177471341164678, 50.923906131251847 ], [ -0.177479866585437, 50.923985914968533 ], [ -0.177497653868264, 50.92400894257198 ], [ -0.177572715691067, 50.924138057455608 ], [ -0.177626577608456, 50.924271333424038 ], [ -0.177658679070169, 50.924407383907216 ], [ -0.177668685905978, 50.924544793457535 ], [ -0.177656493810182, 50.924682132475318 ], [ -0.177496197156877, 50.92562470769613 ], [ -0.177501789358417, 50.926547851535098 ], [ -0.177500135077979, 50.926606357247437 ], [ -0.177457166359044, 50.92729235835013 ], [ -0.177436196192254, 50.927434941331065 ], [ -0.177391421783133, 50.927575315210376 ], [ -0.177323347762346, 50.927711897240115 ], [ -0.17723274148752, 50.927843147412972 ], [ -0.176964751618842, 50.928181151866589 ], [ -0.176881446853066, 50.928276414945216 ], [ -0.176355459981881, 50.928824423243896 ], [ -0.176245992866302, 50.928927460438757 ], [ -0.176195786923253, 50.928970315553656 ], [ -0.175859268817809, 50.9295675035576 ], [ -0.17593982889141, 50.929594262102498 ], [ -0.176117420252235, 50.92966035535904 ], [ -0.176281503087362, 50.9297357754769 ] ] ] } },
{ "type": "Feature", "properties": { "name": "Tottington Trail", "mainhabs": "Trail Buffer Zone" }, "geometry": { "type": "Polygon", "coordinates": [ [ [ -0.190615415159443, 50.930486341441238 ], [ -0.19061077693234, 50.930491383590166 ], [ -0.190485225665106, 50.930600913440685 ], [ -0.19034294493657, 50.930701945205186 ], [ -0.190185365762535, 50.930793462665932 ], [ -0.190014073065118, 50.930874545298558 ], [ -0.189793666047151, 50.93096835467184 ], [ -0.189705154086412, 50.931044964908175 ], [ -0.189213151486679, 50.931799692710733 ], [ -0.189082315864915, 50.931966614471015 ], [ -0.18890932058925, 50.932153617230426 ], [ -0.188786793158175, 50.932271458806866 ], [ -0.188645463832511, 50.932380571546673 ], [ -0.187843466521768, 50.932937582342142 ], [ -0.18766008327776, 50.93305051973222 ], [ -0.187456613373376, 50.933148764293556 ], [ -0.187148609168457, 50.933279767372262 ], [ -0.187010031644627, 50.933333967857479 ], [ -0.186918753624757, 50.933363838999824 ], [ -0.186597312002964, 50.933577100819406 ], [ -0.186423812574531, 50.933680049434187 ], [ -0.186233250993156, 50.933770150023577 ], [ -0.185171236153439, 50.934216160541837 ], [ -0.184988754275368, 50.934284779628911 ], [ -0.184796383787218, 50.934341599692402 ], [ -0.184596029290027, 50.934386058166929 ], [ -0.184389674451958, 50.934417714876091 ], [ -0.184179362364173, 50.934436256391649 ], [ -0.183967175307641, 50.934441499137357 ], [ -0.183724382705133, 50.934439858784316 ], [ -0.183532077969463, 50.934461635993891 ], [ -0.182966787303788, 50.934572733310816 ], [ -0.182761447703035, 50.93460611842761 ], [ -0.182551878834983, 50.934626463619033 ], [ -0.182340149329392, 50.934633568061713 ], [ -0.182128349148392, 50.934627361630248 ], [ -0.181918568951333, 50.934607905589537 ], [ -0.18171287945279, 50.934575391989867 ], [ -0.181584715228574, 50.934546332042146 ], [ -0.181522809787367, 50.935005265143815 ], [ -0.181502562378249, 50.93522072850849 ], [ -0.181465781455686, 50.935624526925523 ], [ -0.181434884271379, 50.935972548364418 ], [ -0.181434322511101, 50.93597863021273 ], [ -0.181422328192045, 50.936103630488589 ], [ -0.181399409518241, 50.93623517913332 ], [ -0.181356194930475, 50.936364674865438 ], [ -0.181293100450515, 50.936490870546564 ], [ -0.181210733571646, 50.936612550810423 ], [ -0.181109887413581, 50.936728543768808 ], [ -0.180991533088847, 50.936837732299047 ], [ -0.180856810353932, 50.936939064804271 ], [ -0.180707016635135, 50.937031565342934 ], [ -0.18054359453469, 50.937114343029656 ], [ -0.180368117937452, 50.937186600617125 ], [ -0.180182276851963, 50.937247642176004 ], [ -0.179987861131942, 50.937296879799014 ], [ -0.179786743235081, 50.937333839264454 ], [ -0.179580860185326, 50.937358164604667 ], [ -0.179372194912569, 50.937369621535282 ], [ -0.179162757149662, 50.937368099712096 ], [ -0.178954564070971, 50.937353613794158 ], [ -0.178749620859188, 50.937326303302413 ], [ -0.17854990138781, 50.937286431275567 ], [ -0.178357329205574, 50.937234381735912 ], [ -0.17817375900621, 50.937170655989725 ], [ -0.178000958762173, 50.937095867797851 ], [ -0.177840592694614, 50.937010737463062 ], [ -0.177694205243687, 50.936916084891195 ], [ -0.177563206193709, 50.936812821692882 ], [ -0.177448857096427, 50.936701942402081 ], [ -0.177352259123151, 50.936584514896253 ], [ -0.177274342462676, 50.936461670110198 ], [ -0.177215857367003, 50.936334591142788 ], [ -0.177177366930915, 50.936204501861745 ], [ -0.177159241674779, 50.936072655116014 ], [ -0.177161655982531, 50.935940320669502 ], [ -0.177173369636591, 50.935818361455262 ], [ -0.177204115226283, 50.935472403492831 ], [ -0.177204291538371, 50.935470445009464 ], [ -0.177241310001495, 50.93506444586999 ], [ -0.177241536582296, 50.935061999533417 ], [ -0.177263547219384, 50.93482800004157 ], [ -0.177267508546579, 50.934793404315982 ], [ -0.177275168153484, 50.934736659092465 ], [ -0.176864195846171, 50.934612292732339 ], [ -0.176817001925908, 50.93459755615055 ], [ -0.175844983793158, 50.934284547952302 ], [ -0.175718387257621, 50.934240302976526 ], [ -0.175345381491592, 50.934099299441023 ], [ -0.175343226441991, 50.934098483695188 ], [ -0.1749712207138, 50.933957480162569 ], [ -0.174792171134112, 50.933881588575794 ], [ -0.174626153205229, 50.933794668655189 ], [ -0.174474861280139, 50.933697607533865 ], [ -0.174339839385133, 50.933591395843131 ], [ -0.174222465462263, 50.933477117599963 ], [ -0.174123937308338, 50.933355939141663 ], [ -0.174045260353897, 50.933229097220362 ], [ -0.174030638283686, 50.933196031508572 ], [ -0.173344122786527, 50.932978417164136 ], [ -0.173163599099135, 50.932914078171443 ], [ -0.172993803544056, 50.932838976791118 ], [ -0.172836337612079, 50.932753821396105 ], [ -0.172692686474645, 50.932659415186464 ], [ -0.172564204975495, 50.932556648612156 ], [ -0.172452104852753, 50.932446490972538 ], [ -0.172357443311916, 50.932329981272517 ], [ -0.172281113057511, 50.932208218421422 ], [ -0.172223833877288, 50.932082350866878 ], [ -0.172186145858216, 50.93195356576183 ], [ -0.172168404298059, 50.931823077767035 ], [ -0.172170776360348, 50.931692117594039 ], [ -0.172193239504053, 50.931561920397506 ], [ -0.172235581702528, 50.93143371412593 ], [ -0.172245282765491, 50.931414098214532 ], [ -0.172235064303004, 50.931410703806954 ], [ -0.172059884498833, 50.931345603290481 ], [ -0.171895298817639, 50.931270267411712 ], [ -0.171742799908935, 50.931185379428143 ], [ -0.171603770779475, 50.931091709225605 ], [ -0.171479472250341, 50.930990106334619 ], [ -0.17137103152322, 50.930881492224138 ], [ -0.171279431959519, 50.930766851943268 ], [ -0.171205504164984, 50.930647225186341 ], [ -0.171149918460569, 50.930523696862743 ], [ -0.171113178807692, 50.930397387256804 ], [ -0.171095618242837, 50.930269441867182 ], [ -0.171097395862733, 50.930141021018031 ], [ -0.171118495387212, 50.930013289335832 ], [ -0.171158725312618, 50.929887405187685 ], [ -0.171217720654145, 50.929764510176774 ], [ -0.172281790788538, 50.927876529093943 ], [ -0.172361852407769, 50.92775391182672 ], [ -0.17246058691209, 50.927636858422716 ], [ -0.172577038974189, 50.927526501297933 ], [ -0.172757551814145, 50.927372428332887 ], [ -0.17318788537294, 50.926924113933723 ], [ -0.173211049947416, 50.926894900552199 ], [ -0.173234012307032, 50.926528835220999 ], [ -0.173228232578395, 50.925560099762492 ], [ -0.173240450439254, 50.925410815449268 ], [ -0.173413496014876, 50.924393819041569 ], [ -0.173446355142306, 50.924262233897387 ], [ -0.173499594081852, 50.924133339697512 ], [ -0.173572693192029, 50.92400839412003 ], [ -0.173664939062925, 50.923888616304843 ], [ -0.1737754314826, 50.923775174959189 ], [ -0.173903092225232, 50.923669176955578 ], [ -0.174046675575095, 50.923571656533227 ], [ -0.174204780483576, 50.923483565208386 ], [ -0.17437586424053, 50.923405762492003 ], [ -0.174558257526546, 50.923339007504964 ], [ -0.174750180699316, 50.923283951572905 ], [ -0.174754180607175, 50.923282951598672 ], [ -0.174976250667426, 50.923236161702079 ], [ -0.17520509342602, 50.923205028540345 ], [ -0.175437954696791, 50.923189926810949 ], [ -0.17551942563462, 50.923187485774534 ], [ -0.176711177024467, 50.923018226383178 ], [ -0.177004384028334, 50.922989936544212 ], [ -0.1777943613506, 50.922948937483696 ], [ -0.178078494263708, 50.922946190560985 ], [ -0.178404177045768, 50.922956768560041 ], [ -0.178755231883228, 50.922913899993844 ], [ -0.178945018293565, 50.922896274939568 ], [ -0.179136542112219, 50.922889494367006 ], [ -0.179231791999631, 50.922891540726447 ], [ -0.179700813053667, 50.922861352075003 ], [ -0.179916996977121, 50.922854412710471 ], [ -0.180569293812055, 50.922854412551672 ], [ -0.180635054227751, 50.922853918142046 ], [ -0.180951757080306, 50.922815989322437 ], [ -0.181173124833564, 50.922797000876919 ], [ -0.181396420333854, 50.922792745532377 ], [ -0.181619195917502, 50.922803269936132 ], [ -0.181839009617724, 50.922828458726549 ], [ -0.183112976030127, 50.923018453071172 ], [ -0.183346395339221, 50.923062286087301 ], [ -0.183484660231944, 50.923093779773573 ], [ -0.187125605113484, 50.923384900223937 ], [ -0.187301474184179, 50.923398732565431 ], [ -0.187491957985689, 50.923419287477643 ], [ -0.187678718509086, 50.923450650343149 ], [ -0.187860224004313, 50.923492563936534 ], [ -0.190175173832653, 50.924103547232441 ], [ -0.19037063072399, 50.924162667196569 ], [ -0.190501433223142, 50.924207525535245 ], [ -0.192650713571556, 50.924634446035576 ], [ -0.192845805499501, 50.924679907592626 ], [ -0.193032970464397, 50.92473715449902 ], [ -0.193210431212032, 50.924805643169158 ], [ -0.193376502613272, 50.92488472326859 ], [ -0.193529607663544, 50.924973643887938 ], [ -0.193668292456722, 50.925071560671725 ], [ -0.193791239991275, 50.925177543834579 ], [ -0.193837240973651, 50.925221543148091 ], [ -0.19394484251311, 50.925336452653426 ], [ -0.194033937621161, 50.925457524007314 ], [ -0.194103652755974, 50.925583570354974 ], [ -0.194153304338767, 50.925713356062218 ], [ -0.194182405460678, 50.925845608827316 ], [ -0.194190670662334, 50.925979032152838 ], [ -0.194178018739059, 50.926112318055011 ], [ -0.194166941234352, 50.926176030348188 ], [ -0.194162795994204, 50.9262017380779 ], [ -0.194140273836957, 50.926303100274062 ], [ -0.193748333683531, 50.927684107889249 ], [ -0.193745059136321, 50.927695370090042 ], [ -0.193638953585791, 50.928051777890431 ], [ -0.193346995786101, 50.929030783530408 ], [ -0.193295629750545, 50.92916490319012 ], [ -0.193222845020155, 50.929295003423064 ], [ -0.193129403509594, 50.929419722021279 ], [ -0.193016283441787, 50.929537753114531 ], [ -0.192884669110904, 50.929647860845101 ], [ -0.192735938486348, 50.929748892309675 ], [ -0.19257164878735, 50.929839789632858 ], [ -0.192393520179127, 50.92991960104596 ], [ -0.192203417761294, 50.929987490854657 ], [ -0.192003332037156, 50.930042748191262 ], [ -0.191445184214426, 50.930175839238842 ], [ -0.191024936599283, 50.930311995003613 ], [ -0.190625474669233, 50.930482517640847 ], [ -0.190615415159443, 50.930486341441238 ] ], [ [ -0.178237734638692, 50.931895005373939 ], [ -0.178262307970764, 50.93187720705248 ], [ -0.178416229727044, 50.931785793913413 ], [ -0.178583697431822, 50.931704444080538 ], [ -0.178763070457958, 50.931633954481946 ], [ -0.178952591575136, 50.931575015652577 ], [ -0.179150404162208, 50.931528204971009 ], [ -0.179527394721402, 50.931452206953502 ], [ -0.179727256651248, 50.93141856432247 ], [ -0.179931333367216, 50.931397305947129 ], [ -0.180137708046757, 50.931388631501498 ], [ -0.180344442288425, 50.931392622463193 ], [ -0.180549594313889, 50.93140924134827 ], [ -0.180751237201628, 50.931438332063209 ], [ -0.180947476981302, 50.931479621370514 ], [ -0.182000151005633, 50.931737540175064 ], [ -0.182461356021607, 50.93185043569445 ], [ -0.182648552001531, 50.931821559482898 ], [ -0.183169537555856, 50.931762561002579 ], [ -0.183334939002749, 50.931748862055919 ], [ -0.183671640453535, 50.931607460589902 ], [ -0.183877013077005, 50.931471210408056 ], [ -0.183897449588507, 50.931452387612602 ], [ -0.184029471223055, 50.931352868629688 ], [ -0.184176027538507, 50.931261835507634 ], [ -0.184335759528001, 50.931180132342234 ], [ -0.184507186038459, 50.931108516714438 ], [ -0.184688717503898, 50.93104765266699 ], [ -0.184873084280595, 50.930992855211372 ], [ -0.185329889172377, 50.930675604971775 ], [ -0.185856899725857, 50.92986727451369 ], [ -0.185968347444343, 50.929721766115868 ], [ -0.186106544545599, 50.929585730458314 ], [ -0.186567551082684, 50.929186737282862 ], [ -0.186683208649201, 50.929095256720004 ], [ -0.186810986682043, 50.929010461286047 ], [ -0.186893712526831, 50.928964332921403 ], [ -0.186904280828704, 50.928950690032394 ], [ -0.187015771351052, 50.928836925616942 ], [ -0.187144552827879, 50.928730703960269 ], [ -0.187289357225283, 50.928633070871896 ], [ -0.18744875878207, 50.92854498759641 ], [ -0.187621188048229, 50.9284673213511 ], [ -0.188088181101723, 50.928278325850954 ], [ -0.18825984233124, 50.928215757643642 ], [ -0.188418879080233, 50.928169632944496 ], [ -0.188742551089477, 50.928031465537643 ], [ -0.188963504349726, 50.927948918039 ], [ -0.189365551704847, 50.927818661063213 ], [ -0.189444985031209, 50.927552377474058 ], [ -0.189549264373923, 50.927202209044168 ], [ -0.189645092557221, 50.926864671629374 ], [ -0.189025168358438, 50.926741526412009 ], [ -0.188832374040355, 50.926696676098551 ], [ -0.188647298179837, 50.926640315870799 ], [ -0.188430646834932, 50.926566015094785 ], [ -0.186484178398984, 50.926052280928893 ], [ -0.182715119886587, 50.925750908795791 ], [ -0.182484319320125, 50.925724232171106 ], [ -0.182259548657935, 50.925681701004734 ], [ -0.182014273570967, 50.925625832678271 ], [ -0.181300491231781, 50.925519382354281 ], [ -0.181245226474763, 50.925526000763163 ], [ -0.181060114751308, 50.925542896388976 ], [ -0.180873373109205, 50.925549481772649 ], [ -0.180607365414311, 50.925551481750894 ], [ -0.180581996977382, 50.925551577131692 ], [ -0.180025354790068, 50.925551577224375 ], [ -0.179496155928419, 50.925585638283948 ], [ -0.17932064995184, 50.925591898391453 ], [ -0.178958749222008, 50.925636090409256 ], [ -0.178702709244053, 50.925657296805568 ], [ -0.178444490958776, 50.925658799634661 ], [ -0.17803295611659, 50.925645433732022 ], [ -0.177496478878848, 50.925671212527966 ], [ -0.177501789358417, 50.926547851535098 ], [ -0.177500135077979, 50.926606357247437 ], [ -0.177457166359044, 50.92729235835013 ], [ -0.177436196192254, 50.927434941331065 ], [ -0.177391421783133, 50.927575315210376 ], [ -0.177323347762346, 50.927711897240115 ], [ -0.17723274148752, 50.927843147412972 ], [ -0.176964751618842, 50.928181151866589 ], [ -0.176881446853066, 50.928276414945216 ], [ -0.176355459981881, 50.928824423243896 ], [ -0.176245992866302, 50.928927460438757 ], [ -0.176195786923253, 50.928970315553656 ], [ -0.175859268817809, 50.9295675035576 ], [ -0.17593982889141, 50.929594262102498 ], [ -0.176117420252235, 50.92966035535904 ], [ -0.176284094886854, 50.929736966784937 ], [ -0.176438298141584, 50.929823381816732 ], [ -0.176578591661454, 50.929918794446962 ], [ -0.176703666806221, 50.930022314740619 ], [ -0.176812356857614, 50.930132977134221 ], [ -0.176903647903927, 50.930249749440605 ], [ -0.1769766883004, 50.930371542475136 ], [ -0.177030796616986, 50.930497220213915 ], [ -0.177065467999276, 50.930625610389093 ], [ -0.177080378883051, 50.930755515422625 ], [ -0.177075390018265, 50.930885723596312 ], [ -0.177050547774088, 50.931015020354337 ], [ -0.177040549385607, 50.93105202054987 ], [ -0.177015335712244, 50.931124653526616 ], [ -0.177213765813492, 50.931187547897508 ], [ -0.177398035317253, 50.931253375255565 ], [ -0.177571079295297, 50.931330414709144 ], [ -0.177731195288398, 50.931417908348678 ], [ -0.177876807996372, 50.931514995412066 ], [ -0.178006484775955, 50.931620720751056 ], [ -0.178118949736575, 50.931734044226531 ], [ -0.178213096295234, 50.931853850939824 ], [ -0.178237734638692, 50.931895005373939 ] ] ] } }
]
}
