{"type":"FeatureCollection","features":[{"type":"Feature","id":1,"geometry":{"type":"LineString","coordinates":[[-0.17877599999997074,50.933768000000043],[-0.17893799999995963,50.933809000000053],[-0.17900999999994838,50.93378800000005],[-0.17921099999995249,50.933733000000075],[-0.17887599999994563,50.933672000000058],[-0.17921099999995249,50.933733000000075],[-0.17955699999993158,50.933808000000056],[-0.17971699999992552,50.933843000000081],[-0.17955699999993158,50.933808000000056],[-0.17979999999994334,50.932838000000061],[-0.17979899999994586,50.932813000000067],[-0.18017599999996037,50.932737000000031],[-0.18228299999992714,50.933253000000036],[-0.18233299999997143,50.933285000000069],[-0.18302499999992961,50.933149000000071],[-0.18354599999997845,50.93309000000005],[-0.18398999999993748,50.933093000000042],[-0.18505199999992783,50.932647000000031],[-0.18556899999992993,50.932304000000045],[-0.18559699999997292,50.932268000000079],[-0.1859569999999735,50.932161000000065],[-0.18626499999993484,50.932030000000054],[-0.18706699999995635,50.93147300000004],[-0.18723999999997432,50.931286000000057],[-0.18782999999996264,50.930381000000068],[-0.18829099999993559,50.929982000000052],[-0.18882199999995919,50.929756000000054],[-0.18881399999997939,50.929734000000053],[-0.18877899999995407,50.929626000000042],[-0.18877199999997174,50.929603000000043],[-0.18923899999992955,50.929414000000065],[-0.18943099999995638,50.929365000000075],[-0.18993699999992941,50.929149000000052],[-0.19057899999995698,50.928941000000066],[-0.19124999999996817,50.928781000000072],[-0.1915419999999699,50.927802000000042],[-0.19164799999992965,50.927446000000032],[-0.19203999999996313,50.926065000000051],[-0.19204499999995051,50.926034000000072],[-0.19205699999997705,50.925965000000076],[-0.1920109999999795,50.925921000000073],[-0.18966499999993403,50.925455000000056],[-0.18935299999992594,50.925348000000042],[-0.18703799999997273,50.92473700000005],[-0.1829829999999788,50.924413000000072],[-0.18262299999997822,50.924331000000052],[-0.18134899999995469,50.924141000000077],[-0.18139699999994718,50.923336000000063],[-0.18142099999994343,50.923007000000041],[-0.18129599999997481,50.922682000000066],[-0.18137499999994589,50.922533000000044],[-0.1816939999999363,50.922294000000079],[-0.182062999999971,50.921963000000062],[-0.18238499999995383,50.921881000000042],[-0.18258499999996047,50.921474000000046],[-0.18263299999995297,50.920620000000042],[-0.18253899999996293,50.92010300000004],[-0.18260299999997187,50.919832000000042],[-0.18257099999993898,50.919538000000045],[-0.1826439999999252,50.919044000000042],[-0.18280999999996084,50.918587000000059],[-0.18290699999994331,50.918035000000032],[-0.18292799999994713,50.916931000000034],[-0.18271599999997079,50.916084000000069],[-0.18275499999992917,50.91584000000006],[-0.18321599999995897,50.915443000000039],[-0.18352199999992536,50.915238000000045],[-0.1840469999999641,50.914795000000026],[-0.18408999999996922,50.91475900000006],[-0.18392999999997528,50.91402400000004],[-0.18341199999997571,50.91230500000006],[-0.18340599999993401,50.91216600000007],[-0.18342199999995046,50.912110000000041],[-0.18137599999994336,50.912352000000055],[-0.18041099999993548,50.912488000000053],[-0.17963399999996454,50.912698000000034],[-0.17890599999992673,50.912854000000038],[-0.17827799999997751,50.913032000000044],[-0.17720799999995052,50.913229000000058],[-0.17685699999992721,50.913229000000058],[-0.17638799999997445,50.913095000000055],[-0.17568199999993794,50.91296600000004],[-0.17505199999993692,50.912961000000053],[-0.17420699999996714,50.913035000000036],[-0.17342599999994945,50.913170000000036],[-0.17268699999993942,50.913094000000058],[-0.17213299999997389,50.912818000000073],[-0.17234199999995781,50.912355000000048],[-0.17246499999993148,50.912081000000057],[-0.17230099999994763,50.911932000000036],[-0.17055599999997639,50.911808000000065],[-0.16979899999995496,50.911652000000061],[-0.16969699999992827,50.911631000000057],[-0.16898099999997385,50.91119400000008],[-0.16776299999997946,50.911107000000072],[-0.16773499999993646,50.911158000000057],[-0.16741199999995615,50.911728000000039],[-0.16734999999994216,50.911839000000043],[-0.16744799999997895,50.91203900000005],[-0.16726599999992686,50.912318000000027],[-0.16779999999994288,50.912557000000049],[-0.16762499999992997,50.912617000000068],[-0.16732599999994591,50.912655000000029],[-0.16727699999995593,50.912740000000042],[-0.1674659999999335,50.913019000000077],[-0.1675799999999299,50.913471000000072],[-0.16771999999997433,50.913703000000055],[-0.16791199999994433,50.913707000000045],[-0.16820399999994606,50.91375800000003],[-0.16822299999995494,50.913843000000043],[-0.16823099999993474,50.913876000000073],[-0.16815399999995861,50.914446000000055],[-0.16810299999997369,50.914553000000069],[-0.1679609999999343,50.914700000000039],[-0.16795399999995198,50.914836000000037],[-0.16800399999993942,50.914982000000066],[-0.16827699999993229,50.915243000000032],[-0.16839699999997038,50.915518000000077],[-0.16853199999997059,50.916405000000054],[-0.16847499999994398,50.916512000000068],[-0.16856799999993655,50.916548000000034],[-0.16859099999993532,50.916556000000071],[-0.16897199999993973,50.91666900000007],[-0.1690309999999613,50.91672200000005],[-0.16948099999996202,50.917219000000046],[-0.17087299999997185,50.918758000000082],[-0.1714139999999702,50.919293000000039],[-0.1720089999999459,50.919989000000044],[-0.1720449999999687,50.92000900000005],[-0.17209799999994857,50.919946000000039],[-0.17270699999994577,50.919867000000067],[-0.1730289999999286,50.919779000000062],[-0.17318399999993517,50.919737000000055],[-0.17322899999993524,50.919813000000033],[-0.17324499999995169,50.919839000000081],[-0.17349099999995587,50.919994000000031],[-0.17385999999993373,50.920174000000031],[-0.17431199999992941,50.92032800000004],[-0.17441099999996368,50.920353000000034],[-0.17450399999995625,50.920416000000046],[-0.17483199999992394,50.921408000000042],[-0.17499199999997472,50.921894000000066],[-0.17498799999992798,50.921933000000081],[-0.17534999999998035,50.924051000000077],[-0.17536299999994753,50.924353000000053],[-0.17552799999992885,50.924530000000061],[-0.17553499999996802,50.924538000000041],[-0.17536199999995006,50.925555000000031],[-0.17536799999993491,50.926553000000069],[-0.17532499999992979,50.927239000000043],[-0.1750569999999243,50.927577000000042],[-0.17453099999994492,50.92812500000008],[-0.17429199999997991,50.928329000000076],[-0.17322799999993777,50.930217000000027],[-0.17494699999997465,50.930788000000064],[-0.17493699999994305,50.930825000000027],[-0.17562899999995807,50.93103300000007],[-0.17529599999994616,50.931565000000035],[-0.17548299999992878,50.931634000000031],[-0.17604499999993095,50.931841000000077],[-0.17640199999993911,50.931977000000074],[-0.17638699999997698,50.932040000000029],[-0.17727299999995694,50.93235100000004],[-0.1771729999999252,50.932450000000074],[-0.17727299999995694,50.93235100000004],[-0.17774499999995896,50.932595000000049],[-0.17814699999996719,50.932837000000063],[-0.17778599999996914,50.933396000000073],[-0.17843699999997398,50.93359300000003],[-0.17842499999994743,50.933678000000043],[-0.17877599999997074,50.933768000000043]]},"properties":{"OBJECTID":1,"Name":"9.45673498591402E-02","Descript":"GPX Download: Danny House – Hurstpierpoint Folly Tower loop from Hurstpierpoint","Type":""}}]}