{"type":"FeatureCollection","features":[{"type":"Feature","id":1,"geometry":{"type":"LineString","coordinates":[[-0.17929199999997536,50.936022000000037],[-0.17930399999994506,50.935897000000068],[-0.17933499999998048,50.93554800000004],[-0.17937199999994391,50.935142000000042],[-0.17939399999994521,50.934908000000064],[-0.17946699999993143,50.934367000000066],[-0.1795399999999745,50.93391100000008],[-0.17955699999993158,50.933808000000056],[-0.17971699999992552,50.933843000000081],[-0.17955699999993158,50.933808000000056],[-0.17979999999994334,50.932838000000061],[-0.17979899999994586,50.932813000000067],[-0.18017599999996037,50.932737000000031],[-0.18122899999997344,50.932995000000062],[-0.18228299999992714,50.933253000000036],[-0.18233299999997143,50.933285000000069],[-0.18302499999992961,50.933149000000071],[-0.18354599999997845,50.93309000000005],[-0.18398999999993748,50.933093000000042],[-0.18505199999992783,50.932647000000031],[-0.18556899999992993,50.932304000000045],[-0.18559699999997292,50.932268000000079],[-0.1859569999999735,50.932161000000065],[-0.18626499999993484,50.932030000000054],[-0.18706699999995635,50.93147300000004],[-0.18723999999997432,50.931286000000057],[-0.18782999999996264,50.930381000000068],[-0.18829099999993559,50.929982000000052],[-0.18882199999995919,50.929756000000054],[-0.18881399999997939,50.929734000000053],[-0.18877899999995407,50.929626000000042],[-0.18877199999997174,50.929603000000043],[-0.18923899999992955,50.929414000000065],[-0.18943099999995638,50.929365000000075],[-0.18993699999992941,50.929149000000052],[-0.19057899999995698,50.928941000000066],[-0.19124999999996817,50.928781000000072],[-0.1915419999999699,50.927802000000042],[-0.19164799999992965,50.927446000000032],[-0.19203999999996313,50.926065000000051],[-0.19204499999995051,50.926034000000072],[-0.19205699999997705,50.925965000000076],[-0.1920109999999795,50.925921000000073],[-0.18966499999993403,50.925455000000056],[-0.18935299999992594,50.925348000000042],[-0.18703799999997273,50.92473700000005],[-0.18685999999996739,50.924723000000029],[-0.1829829999999788,50.924413000000072],[-0.18262299999997822,50.924331000000052],[-0.18134899999995469,50.924141000000077],[-0.18084799999996903,50.924201000000039],[-0.1805819999999585,50.924203000000034],[-0.17991699999993216,50.924203000000034],[-0.17927999999994881,50.924244000000044],[-0.17915999999996757,50.924238000000059],[-0.1785539999999628,50.924312000000043],[-0.17796899999996185,50.924293000000034],[-0.1779489999999555,50.924297000000081],[-0.17717899999996689,50.924334000000044],[-0.17580599999996593,50.924529000000064],[-0.17553899999995792,50.924537000000043],[-0.1755359999999655,50.924538000000041],[-0.17553499999996802,50.924538000000041],[-0.17536199999995006,50.925555000000031],[-0.17536799999993491,50.926553000000069],[-0.17532499999992979,50.927239000000043],[-0.1750569999999243,50.927577000000042],[-0.17453099999994492,50.92812500000008],[-0.17429199999997991,50.928329000000076],[-0.17322799999993777,50.930217000000027],[-0.17494699999997465,50.930788000000064],[-0.17493699999994305,50.930825000000027],[-0.17464299999994637,50.931324000000075],[-0.17430099999995718,50.931773000000078],[-0.17625699999996414,50.932393000000047],[-0.1760689999999272,50.93280100000004],[-0.17644099999995433,50.932942000000025],[-0.17681399999997893,50.933083000000067],[-0.17778599999996914,50.933396000000073],[-0.17843699999997398,50.93359300000003],[-0.17887599999994563,50.933672000000058],[-0.17921099999995249,50.933733000000075],[-0.17955699999993158,50.933808000000056],[-0.1795399999999745,50.93391100000008],[-0.17946699999993143,50.934367000000066],[-0.17939399999994521,50.934908000000064],[-0.17937199999994391,50.935142000000042],[-0.17933499999998048,50.93554800000004],[-0.17930399999994506,50.935897000000068],[-0.17929199999997536,50.936022000000037]]},"properties":{"OBJECTID":1,"Name":"5.41014490734747E-02","Descript":"GPX Download: Dirt Path Along Grassy Field – Morley's Wine Bar loop from Hurstpierpoint and Sayers Common","Type":""}}]}